start=new Date('2022-04-21T00:00:00.000Z').valueOf();
sats=[{"NORAD_CAT_ID":"51755","PERIOD":"91.531","FILE":"3409979","EPHEMERIS_TYPE":"0","BSTAR":"-0.00060928000000","ECCENTRICITY":"0.00024620","GP_ID":"201716885","SITE":"AFETR","MEAN_MOTION_DOT":"-0.00085394","RCS_SIZE":"LARGE","OBJECT_ID":"2022-016AT","SEMIMAJOR_AXIS":"6727.808","MEAN_ANOMALY":"141.8731","RA_OF_ASC_NODE":"210.9357","INCLINATION":"53.2128","REV_AT_EPOCH":"368","ARG_OF_PERICENTER":"20.7300","TLE_LINE2":"2 51755  53.2128 210.9357 0002462  20.7300 141.8731 15.73230686  3682","OBJECT_NAME":"STARLINK-3460","PERIAPSIS":"348.016","COUNTRY_CODE":"US","CLASSIFICATION_TYPE":"U","MEAN_ELEMENT_THEORY":"SGP4","MEAN_MOTION_DDOT":"0.0000000000000","EPOCH":"2022-04-20T22:00:00.999936","TIME_SYSTEM":"UTC","ELEMENT_SET_NO":"999","TLE_LINE1":"1 51755U 22016AT  22110.91667824 -.00085394  00000-0 -60928-3 0  9992","DECAY_DATE":null,"APOAPSIS":"351.329","REF_FRAME":"TEME","MEAN_MOTION":"15.73230686","LAUNCH_DATE":"2022-02-21","CENTER_NAME":"EARTH","OBJECT_TYPE":"PAYLOAD"},{"LAUNCH_DATE":"2022-02-21","CENTER_NAME":"EARTH","OBJECT_TYPE":"PAYLOAD","MEAN_MOTION":"15.73252710","DECAY_DATE":null,"APOAPSIS":"351.408","REF_FRAME":"TEME","TLE_LINE1":"1 51756U 22016AU  22110.91667824 -.00088477  00000-0 -63104-3 0  9997","EPOCH":"2022-04-20T22:00:00.999936","TIME_SYSTEM":"UTC","ELEMENT_SET_NO":"999","MEAN_MOTION_DDOT":"0.0000000000000","MEAN_ELEMENT_THEORY":"SGP4","TLE_LINE2":"2 51756  53.2131 210.9359 0002673  23.6543 140.1850 15.73252710  3680","OBJECT_NAME":"STARLINK-3513","PERIAPSIS":"347.812","COUNTRY_CODE":"US","CLASSIFICATION_TYPE":"U","REV_AT_EPOCH":"368","ARG_OF_PERICENTER":"23.6543","MEAN_ANOMALY":"140.1850","RA_OF_ASC_NODE":"210.9359","INCLINATION":"53.2131","MEAN_MOTION_DOT":"-0.00088477","SITE":"AFETR","RCS_SIZE":"LARGE","SEMIMAJOR_AXIS":"6727.745","OBJECT_ID":"2022-016AU","GP_ID":"201717317","ECCENTRICITY":"0.00026730","BSTAR":"-0.00063104000000","EPHEMERIS_TYPE":"0","NORAD_CAT_ID":"51756","PERIOD":"91.530","FILE":"3409979"},{"MEAN_MOTION":"15.73254850","OBJECT_TYPE":"PAYLOAD","CENTER_NAME":"EARTH","LAUNCH_DATE":"2022-02-21","TLE_LINE1":"1 51757U 22016AV  22110.91667824 -.00101595  00000-0 -72636-3 0  9995","APOAPSIS":"351.251","REF_FRAME":"TEME","DECAY_DATE":null,"MEAN_MOTION_DDOT":"0.0000000000000","ELEMENT_SET_NO":"999","TIME_SYSTEM":"UTC","EPOCH":"2022-04-20T22:00:00.999936","PERIAPSIS":"347.957","COUNTRY_CODE":"US","CLASSIFICATION_TYPE":"U","OBJECT_NAME":"STARLINK-3459","TLE_LINE2":"2 51757  53.2128 210.9324 0002448  22.2188 142.2671 15.73254850 10453","MEAN_ELEMENT_THEORY":"SGP4","INCLINATION":"53.2128","MEAN_ANOMALY":"142.2671","RA_OF_ASC_NODE":"210.9324","ARG_OF_PERICENTER":"22.2188","REV_AT_EPOCH":"1045","GP_ID":"201691974","SEMIMAJOR_AXIS":"6727.739","OBJECT_ID":"2022-016AV","RCS_SIZE":"LARGE","SITE":"AFETR","MEAN_MOTION_DOT":"-0.00101595","BSTAR":"-0.00072636000000","ECCENTRICITY":"0.00024480","PERIOD":"91.530","FILE":"3409933","NORAD_CAT_ID":"51757","EPHEMERIS_TYPE":"0"},{"NORAD_CAT_ID":"51758","FILE":"3409979","PERIOD":"91.533","EPHEMERIS_TYPE":"0","BSTAR":"-0.00012240000000","ECCENTRICITY":"0.00029030","GP_ID":"201717066","RCS_SIZE":"LARGE","SITE":"AFETR","MEAN_MOTION_DOT":"-0.00017765","SEMIMAJOR_AXIS":"6727.907","OBJECT_ID":"2022-016AW","MEAN_ANOMALY":"148.9853","RA_OF_ASC_NODE":"210.9330","INCLINATION":"53.2131","REV_AT_EPOCH":"368","ARG_OF_PERICENTER":"16.1634","TLE_LINE2":"2 51758  53.2131 210.9330 0002903  16.1634 148.9853 15.73195820  3682","OBJECT_NAME":"STARLINK-3458","PERIAPSIS":"347.819","COUNTRY_CODE":"US","CLASSIFICATION_TYPE":"U","MEAN_ELEMENT_THEORY":"SGP4","MEAN_MOTION_DDOT":"0.0000000000000","EPOCH":"2022-04-20T22:00:00.999936","TIME_SYSTEM":"UTC","ELEMENT_SET_NO":"999","TLE_LINE1":"1 51758U 22016AW  22110.91667824 -.00017765  00000-0 -12240-3 0  9996","DECAY_DATE":null,"APOAPSIS":"351.725","REF_FRAME":"TEME","MEAN_MOTION":"15.73195820","LAUNCH_DATE":"2022-02-21","CENTER_NAME":"EARTH","OBJECT_TYPE":"PAYLOAD"},{"NORAD_CAT_ID":"51759","PERIOD":"91.534","FILE":"3409979","EPHEMERIS_TYPE":"0","BSTAR":"-0.00014108000000","ECCENTRICITY":"0.00026710","GP_ID":"201717227","RCS_SIZE":"LARGE","SITE":"AFETR","MEAN_MOTION_DOT":"-0.00020371","SEMIMAJOR_AXIS":"6727.916","OBJECT_ID":"2022-016AX","RA_OF_ASC_NODE":"210.9290","MEAN_ANOMALY":"142.8659","INCLINATION":"53.2126","REV_AT_EPOCH":"368","ARG_OF_PERICENTER":"22.9183","TLE_LINE2":"2 51759  53.2126 210.9290 0002671  22.9183 142.8659 15.73192726  3687","OBJECT_NAME":"STARLINK-3456","COUNTRY_CODE":"US","PERIAPSIS":"347.984","CLASSIFICATION_TYPE":"U","MEAN_ELEMENT_THEORY":"SGP4","MEAN_MOTION_DDOT":"0.0000000000000","EPOCH":"2022-04-20T22:00:00.999936","TIME_SYSTEM":"UTC","ELEMENT_SET_NO":"999","TLE_LINE1":"1 51759U 22016AX  22110.91667824 -.00020371  00000-0 -14108-3 0  9999","DECAY_DATE":null,"REF_FRAME":"TEME","APOAPSIS":"351.578","MEAN_MOTION":"15.73192726","LAUNCH_DATE":"2022-02-21","CENTER_NAME":"EARTH","OBJECT_TYPE":"PAYLOAD"},{"DECAY_DATE":null,"REF_FRAME":"TEME","APOAPSIS":"382.579","TLE_LINE1":"1 51768U 22017A   22110.91667824 -.00718129  00000-0 -87712-2 0  9995","OBJECT_TYPE":"PAYLOAD","LAUNCH_DATE":"2022-02-25","CENTER_NAME":"EARTH","MEAN_MOTION":"15.62121054","MEAN_ELEMENT_THEORY":"SGP4","CLASSIFICATION_TYPE":"U","COUNTRY_CODE":"US","PERIAPSIS":"380.488","TLE_LINE2":"2 51768  53.2172 235.2461 0001547  39.1897 262.2552 15.62121054  3684","OBJECT_NAME":"STARLINK-3622","EPOCH":"2022-04-20T22:00:00.999936","TIME_SYSTEM":"UTC","ELEMENT_SET_NO":"999","MEAN_MOTION_DDOT":"0.0000000000000","OBJECT_ID":"2022-017A","SEMIMAJOR_AXIS":"6759.668","SITE":"AFWTR","MEAN_MOTION_DOT":"-0.00718129","RCS_SIZE":"LARGE","GP_ID":"201717318","REV_AT_EPOCH":"368","ARG_OF_PERICENTER":"39.1897","MEAN_ANOMALY":"262.2552","RA_OF_ASC_NODE":"235.2461","INCLINATION":"53.2172","EPHEMERIS_TYPE":"0","PERIOD":"92.182","FILE":"3409979","NORAD_CAT_ID":"51768","ECCENTRICITY":"0.00015470","BSTAR":"-0.00877120000000"},{"GP_ID":"201717157","RCS_SIZE":"LARGE","SITE":"AFWTR","MEAN_MOTION_DOT":"-0.00717837","OBJECT_ID":"2022-017B","SEMIMAJOR_AXIS":"6759.643","RA_OF_ASC_NODE":"235.2573","MEAN_ANOMALY":"253.7485","INCLINATION":"53.2172","REV_AT_EPOCH":"368","ARG_OF_PERICENTER":"49.1932","NORAD_CAT_ID":"51769","PERIOD":"92.182","FILE":"3409979","EPHEMERIS_TYPE":"0","BSTAR":"-0.00876490000000","ECCENTRICITY":"0.00013430","TLE_LINE1":"1 51769U 22017B   22110.91667824 -.00717837  00000-0 -87649-2 0  9990","DECAY_DATE":null,"REF_FRAME":"TEME","APOAPSIS":"382.416","MEAN_MOTION":"15.62129662","LAUNCH_DATE":"2022-02-25","CENTER_NAME":"EARTH","OBJECT_TYPE":"PAYLOAD","OBJECT_NAME":"STARLINK-3621","TLE_LINE2":"2 51769  53.2172 235.2573 0001343  49.1932 253.7485 15.62129662  3687","CLASSIFICATION_TYPE":"U","COUNTRY_CODE":"US","PERIAPSIS":"380.601","MEAN_ELEMENT_THEORY":"SGP4","MEAN_MOTION_DDOT":"0.0000000000000","EPOCH":"2022-04-20T22:00:00.999936","TIME_SYSTEM":"UTC","ELEMENT_SET_NO":"999"},{"MEAN_MOTION":"15.62125391","CENTER_NAME":"EARTH","LAUNCH_DATE":"2022-02-25","OBJECT_TYPE":"PAYLOAD","TLE_LINE1":"1 51770U 22017C   22110.91667824 -.00718031  00000-0 -87687-2 0  9991","APOAPSIS":"382.492","REF_FRAME":"TEME","DECAY_DATE":null,"MEAN_MOTION_DDOT":"0.0000000000000","ELEMENT_SET_NO":"999","TIME_SYSTEM":"UTC","EPOCH":"2022-04-20T22:00:00.999936","OBJECT_NAME":"STARLINK-3612","TLE_LINE2":"2 51770  53.2172 235.2518 0001437  44.2192 257.9742 15.62125391  3683","COUNTRY_CODE":"US","PERIAPSIS":"380.549","CLASSIFICATION_TYPE":"U","MEAN_ELEMENT_THEORY":"SGP4","INCLINATION":"53.2172","RA_OF_ASC_NODE":"235.2518","MEAN_ANOMALY":"257.9742","ARG_OF_PERICENTER":"44.2192","REV_AT_EPOCH":"368","GP_ID":"201717067","MEAN_MOTION_DOT":"-0.00718031","SITE":"AFWTR","RCS_SIZE":"LARGE","SEMIMAJOR_AXIS":"6759.656","OBJECT_ID":"2022-017C","BSTAR":"-0.00876870000000","ECCENTRICITY":"0.00014370","NORAD_CAT_ID":"51770","FILE":"3409979","PERIOD":"92.182","EPHEMERIS_TYPE":"0"},{"TLE_LINE1":"1 51771U 22017D   22110.91667824 -.00718035  00000-0 -87655-2 0  9991","DECAY_DATE":null,"REF_FRAME":"TEME","APOAPSIS":"382.535","MEAN_MOTION":"15.62134087","LAUNCH_DATE":"2022-02-25","CENTER_NAME":"EARTH","OBJECT_TYPE":"PAYLOAD","TLE_LINE2":"2 51771  53.2172 235.2610 0001538  38.3521 265.3381 15.62134087  3683","OBJECT_NAME":"STARLINK-3614","COUNTRY_CODE":"US","CLASSIFICATION_TYPE":"U","PERIAPSIS":"380.456","MEAN_ELEMENT_THEORY":"SGP4","MEAN_MOTION_DDOT":"0.0000000000000","TIME_SYSTEM":"UTC","EPOCH":"2022-04-20T22:00:00.999936","ELEMENT_SET_NO":"999","GP_ID":"201717228","SITE":"AFWTR","RCS_SIZE":"LARGE","MEAN_MOTION_DOT":"-0.00718035","SEMIMAJOR_AXIS":"6759.631","OBJECT_ID":"2022-017D","MEAN_ANOMALY":"265.3381","RA_OF_ASC_NODE":"235.2610","INCLINATION":"53.2172","REV_AT_EPOCH":"368","ARG_OF_PERICENTER":"38.3521","NORAD_CAT_ID":"51771","PERIOD":"92.182","FILE":"3409979","EPHEMERIS_TYPE":"0","BSTAR":"-0.00876550000000","ECCENTRICITY":"0.00015380"},{"EPOCH":"2022-04-20T22:00:00.999936","TIME_SYSTEM":"UTC","ELEMENT_SET_NO":"999","MEAN_MOTION_DDOT":"0.0000000000000","MEAN_ELEMENT_THEORY":"SGP4","OBJECT_NAME":"STARLINK-3623","TLE_LINE2":"2 51772  53.2173 235.2726 0001485  42.0592 263.8760 15.62147059  3681","COUNTRY_CODE":"US","CLASSIFICATION_TYPE":"U","PERIAPSIS":"380.454","LAUNCH_DATE":"2022-02-25","CENTER_NAME":"EARTH","OBJECT_TYPE":"PAYLOAD","MEAN_MOTION":"15.62147059","DECAY_DATE":null,"APOAPSIS":"382.462","REF_FRAME":"TEME","TLE_LINE1":"1 51772U 22017E   22110.91667824 -.00718051  00000-0 -87614-2 0  9995","ECCENTRICITY":"0.00014850","BSTAR":"-0.00876140000000","EPHEMERIS_TYPE":"0","NORAD_CAT_ID":"51772","PERIOD":"92.181","FILE":"3409979","REV_AT_EPOCH":"368","ARG_OF_PERICENTER":"42.0592","RA_OF_ASC_NODE":"235.2726","MEAN_ANOMALY":"263.8760","INCLINATION":"53.2173","RCS_SIZE":"LARGE","SITE":"AFWTR","MEAN_MOTION_DOT":"-0.00718051","SEMIMAJOR_AXIS":"6759.593","OBJECT_ID":"2022-017E","GP_ID":"201716977"}];
